[{"OBJECT_NAME":"ONEWEB-0530","OBJECT_ID":"2023-029A","EPOCH":"2026-03-09T20:22:37.983072","MEAN_MOTION":13.20770637,"ECCENTRICITY":0.00013361,"INCLINATION":87.9161,"RA_OF_ASC_NODE":294.3137,"ARG_OF_PERICENTER":67.1134,"MEAN_ANOMALY":293.014,"EPHEMERIS_TYPE":0,"CLASSIFICATION_TYPE":"U","NORAD_CAT_ID":55796,"ELEMENT_SET_NO":999,"REV_AT_EPOCH":14803,"BSTAR":-0.00046135555,"MEAN_MOTION_DOT":-1.75e-6,"MEAN_MOTION_DDOT":0},{"OBJECT_NAME":"CZ-4C DEB","OBJECT_ID":"2012-029C","EPOCH":"2026-03-07T23:04:25.867200","MEAN_MOTION":13.19856994,"ECCENTRICITY":0.01247484,"INCLINATION":100.0705,"RA_OF_ASC_NODE":124.4519,"ARG_OF_PERICENTER":175.4998,"MEAN_ANOMALY":184.727,"EPHEMERIS_TYPE":0,"CLASSIFICATION_TYPE":"U","NORAD_CAT_ID":38661,"ELEMENT_SET_NO":999,"REV_AT_EPOCH":66020,"BSTAR":0.00045652398,"MEAN_MOTION_DOT":1.49e-6,"MEAN_MOTION_DDOT":0}]
